{
  "type": "FeatureCollection",
  "features": [
    {
      "type": "Feature",
      "properties": {
        "norad_id": 50032,
        "name": "COSMOS 1408 DEB",
        "group": "cosmos-1408-debris",
        "lat": 35.72662897794839,
        "lon": -135.97517255234968,
        "alt_km": 417.4341783446707,
        "timestamp": "2025-12-21T14:40:48.187074+00:00",
        "meta_object_name": "COSMOS 1408 DEB",
        "meta_object_id": "1982-092RU",
        "meta_epoch": "2025-12-21T04:44:15.700416",
        "meta_mean_motion": 15.45771995,
        "meta_eccentricity": 0.00160807,
        "meta_inclination": 82.5635,
        "meta_ra_of_asc_node": 49.8404,
        "meta_arg_of_pericenter": 177.0061,
        "meta_mean_anomaly": 183.1287,
        "meta_ephemeris_type": 0,
        "meta_classification_type": "U",
        "meta_norad_cat_id": 50032,
        "meta_element_set_no": 999,
        "meta_rev_at_epoch": 22734,
        "meta_bstar": 7.6660607e-05,
        "meta_mean_motion_dot": 3.769e-05,
        "meta_mean_motion_ddot": 0,
        "tle_line1": "1 50032U 82092RU  25355.19740394  .00003769  00000+0  76661-4 0  9992",
        "tle_line2": "2 50032  82.5635  49.8404 0016080 177.0061 183.1287 15.45771995227348"
      },
      "geometry": {
        "type": "Point",
        "coordinates": [
          -135.97517255234968,
          35.72662897794839
        ]
      }
    },
    {
      "type": "Feature",
      "properties": {
        "norad_id": 50058,
        "name": "COSMOS 1408 DEB",
        "group": "cosmos-1408-debris",
        "lat": -39.53028896217545,
        "lon": -113.80007803945396,
        "alt_km": 390.5179565009157,
        "timestamp": "2025-12-21T14:40:48.187095+00:00",
        "meta_object_name": "COSMOS 1408 DEB",
        "meta_object_id": "1982-092SW",
        "meta_epoch": "2025-12-21T04:32:04.588800",
        "meta_mean_motion": 15.64578574,
        "meta_eccentricity": 0.00161275,
        "meta_inclination": 82.6126,
        "meta_ra_of_asc_node": 60.4962,
        "meta_arg_of_pericenter": 70.3199,
        "meta_mean_anomaly": 289.9799,
        "meta_ephemeris_type": 0,
        "meta_classification_type": "U",
        "meta_norad_cat_id": 50058,
        "meta_element_set_no": 999,
        "meta_rev_at_epoch": 22936,
        "meta_bstar": 0.00024667562,
        "meta_mean_motion_dot": 0.00024013,
        "meta_mean_motion_ddot": 0,
        "tle_line1": "1 50058U 82092SW  25355.18894200  .00024013  00000+0  24668-3 0  9999",
        "tle_line2": "2 50058  82.6126  60.4962 0016127  70.3199 289.9799 15.64578574229365"
      },
      "geometry": {
        "type": "Point",
        "coordinates": [
          -113.80007803945396,
          -39.53028896217545
        ]
      }
    },
    {
      "type": "Feature",
      "properties": {
        "norad_id": 50404,
        "name": "COSMOS 1408 DEB",
        "group": "cosmos-1408-debris",
        "lat": 0.5522970208168895,
        "lon": 25.866269780354486,
        "alt_km": 409.42473581153627,
        "timestamp": "2025-12-21T14:40:48.187108+00:00",
        "meta_object_name": "COSMOS 1408 DEB",
        "meta_object_id": "1982-092ADS",
        "meta_epoch": "2025-12-21T01:12:46.849536",
        "meta_mean_motion": 15.14992545,
        "meta_eccentricity": 0.01687907,
        "meta_inclination": 82.2052,
        "meta_ra_of_asc_node": 206.5174,
        "meta_arg_of_pericenter": 170.4182,
        "meta_mean_anomaly": 190.0342,
        "meta_ephemeris_type": 0,
        "meta_classification_type": "U",
        "meta_norad_cat_id": 50404,
        "meta_element_set_no": 999,
        "meta_rev_at_epoch": 21319,
        "meta_bstar": 0.0022156953,
        "meta_mean_motion_dot": 0.00059772,
        "meta_mean_motion_ddot": 0,
        "tle_line1": "1 50404U 82092ADS 25355.05054224  .00059772  00000+0  22157-2 0  9994",
        "tle_line2": "2 50404  82.2052 206.5174 0168790 170.4182 190.0342 15.14992545213193"
      },
      "geometry": {
        "type": "Point",
        "coordinates": [
          25.866269780354486,
          0.5522970208168895
        ]
      }
    },
    {
      "type": "Feature",
      "properties": {
        "norad_id": 50621,
        "name": "COSMOS 1408 DEB",
        "group": "cosmos-1408-debris",
        "lat": -2.7766813284455107,
        "lon": 64.57986661546376,
        "alt_km": 410.3156686925968,
        "timestamp": "2025-12-21T14:40:48.187120+00:00",
        "meta_object_name": "COSMOS 1408 DEB",
        "meta_object_id": "1982-092ALR",
        "meta_epoch": "2025-12-21T05:26:16.339200",
        "meta_mean_motion": 15.57069588,
        "meta_eccentricity": 0.00290954,
        "meta_inclination": 82.5697,
        "meta_ra_of_asc_node": 65.3437,
        "meta_arg_of_pericenter": 121.8542,
        "meta_mean_anomaly": 238.5551,
        "meta_ephemeris_type": 0,
        "meta_classification_type": "U",
        "meta_norad_cat_id": 50621,
        "meta_element_set_no": 999,
        "meta_rev_at_epoch": 22382,
        "meta_bstar": 0.00029678519,
        "meta_mean_motion_dot": 0.00021958,
        "meta_mean_motion_ddot": 0,
        "tle_line1": "1 50621U 82092ALR 25355.22657800  .00021958  00000+0  29679-3 0  9995",
        "tle_line2": "2 50621  82.5697  65.3437 0029095 121.8542 238.5551 15.57069588223829"
      },
      "geometry": {
        "type": "Point",
        "coordinates": [
          64.57986661546376,
          -2.7766813284455107
        ]
      }
    }
  ]
}